{
    "links": {
        "self": "http://www.neowsapp.com/rest/v1/neo/3703056?api_key=iIulBulltgU6a56xZRHN4H3l9WmuAYTsLGpBGhQ2"
    },
    "id": "3703056",
    "neo_reference_id": "3703056",
    "name": "(2014 YA15)",
    "designation": "2014 YA15",
    "nasa_jpl_url": "http://ssd.jpl.nasa.gov/sbdb.cgi?sstr=3703056",
    "absolute_magnitude_h": 24.2,
    "estimated_diameter": {
        "kilometers": {
            "estimated_diameter_min": 0.0384197891,
            "estimated_diameter_max": 0.0859092601
        },
        "meters": {
            "estimated_diameter_min": 38.4197891064,
            "estimated_diameter_max": 85.9092601232
        },
        "miles": {
            "estimated_diameter_min": 0.0238729428,
            "estimated_diameter_max": 0.0533815229
        },
        "feet": {
            "estimated_diameter_min": 126.0491808919,
            "estimated_diameter_max": 281.8545369825
        }
    },
    "is_potentially_hazardous_asteroid": false,
    "close_approach_data": [
        {
            "close_approach_date": "2014-12-30",
            "close_approach_date_full": "2014-Dec-30 17:36",
            "epoch_date_close_approach": 1419960960000,
            "relative_velocity": {
                "kilometers_per_second": "7.9773359036",
                "kilometers_per_hour": "28718.4092530917",
                "miles_per_hour": "17844.5026828447"
            },
            "miss_distance": {
                "astronomical": "0.0427489899",
                "lunar": "16.6293570711",
                "kilometers": "6395157.833691513",
                "miles": "3973766.8118403594"
            },
            "orbiting_body": "Earth"
        }
    ],
    "orbital_data": {
        "orbit_id": "4",
        "orbit_determination_date": "2017-04-06 08:36:41",
        "first_observation_date": "2014-12-27",
        "last_observation_date": "2014-12-31",
        "data_arc_in_days": 4,
        "observations_used": 25,
        "orbit_uncertainty": "8",
        "minimum_orbit_intersection": ".0285592",
        "jupiter_tisserand_invariant": "3.610",
        "epoch_osculation": "2457019.5",
        "eccentricity": ".5163995179288685",
        "semi_major_axis": "2.043078027524922",
        "inclination": "7.968968139052096",
        "ascending_node_longitude": "83.30481207177073",
        "orbital_period": "1066.659625102525",
        "perihelion_distance": ".9880335190199887",
        "perihelion_argument": "26.06984443080045",
        "aphelion_distance": "3.098122536029855",
        "perihelion_time": "2457031.884074320078",
        "mean_anomaly": "355.820347325137",
        "mean_motion": ".3375022280096123",
        "equinox": "J2000",
        "orbit_class": {
            "orbit_class_type": "APO",
            "orbit_class_description": "Near-Earth asteroid orbits which cross the Earth’s orbit similar to that of 1862 Apollo",
            "orbit_class_range": "a (semi-major axis) > 1.0 AU; q (perihelion) < 1.017 AU"
        }
    },
    "is_sentry_object": false
}